ONEWEB-0564             
1 55801U 23029F   26012.75747291  .00000075  00000+0  15335-3 0  9999
2 55801  87.9219 305.4733 0002096  80.3285 279.8085 13.20772822140632
ONEWEB-0638             
1 55802U 23029G   26012.57996931 -.00000146  00000+0 -42856-3 0  9996
2 55802  87.9012 320.7741 0002186  73.3792 286.7578 13.14502448138952
ONEWEB-0639             
1 55803U 23029H   26012.83493991  .00000069  00000+0  13954-3 0  9993
2 55803  87.9224 335.8927 0001157  44.5179 315.6046 13.19726458138414
ONEWEB-0640             
1 55804U 23029J   26012.81783955  .00000000  00000+0 -35602-4 0  9995
2 55804  87.9014 320.7157 0002185  59.8910 300.2436 13.14502494139000
ONEWEB-0641             
1 55805U 23029K   26012.60275623 -.00000223  00000+0 -58884-3 0  9995
2 55805  87.9237 335.9219 0001959  64.6045 295.5291 13.19726514138398
ONEWEB-0642             
1 55806U 23029L   26012.82546344  .00000067  00000+0  13458-3 0  9993
2 55806  87.9218 335.8974 0000995  61.8605 298.2628 13.19725388138410
ONEWEB-0643             
1 55807U 23029M   26012.86381524 -.00000048  00000+0 -16344-3 0  9993
2 55807  87.9016 320.6935 0001046  75.2520 284.8726 13.14503402138987
ONEWEB-0644             
1 55808U 23029N   26012.82071766  .00000048  00000+0  87526-4 0  9993
2 55808  87.9217 335.9072 0001412  76.5317 283.5973 13.19724321138415
